[
    {
        "Altitude(m)": 607897.6374772523,
        "Argument of Periapsis(deg)": 0.0,
        "Eccentricity": 0.0,
        "Inclination(deg)": 60.0,
        "Latitude(deg)": -14.293063308627723,
        "Longitude(deg)": -38.38122347727151,
        "Mean Anomaly(deg)": -16.363600000000062,
        "RAAN(deg)": 70.0,
        "Satellite Name": "Test1 329",
        "Satellite Number": 329,
        "Semi-Major Axis(m)": 6980739.136638005,
        "Time(s)": 0
    },
    {
        "Altitude(m)": 607750.8379039307,
        "Argument of Periapsis(deg)": 0.00010418945913296404,
        "Eccentricity": 0.0,
        "Inclination(deg)": 60.0,
        "Latitude(deg)": -13.758904288167214,
        "Longitude(deg)": -38.094155227105816,
        "Mean Anomaly(deg)": -15.743493854538173,
        "RAAN(deg)": 69.99957995086027,
        "Satellite Name": "Test1 329",
        "Satellite Number": 329,
        "Semi-Major Axis(m)": 6980739.136638005,
        "Time(s)": 10
    }
]